{
"type": "FeatureCollection",
"name": "aoi_default",
"crs": { "type": "name", "properties": { "name": "urn:ogc:def:crs:OGC:1.3:CRS84" } },
"features": [
{ "type": "Feature", "properties": { "aoi_name": "Greater Jakarta road-based quick-commerce logistics region", "included_units": "KotaTangerang, Tangerang, TangerangSelatan, JakartaBarat, JakartaPusat, JakartaSelatan, JakartaTimur, JakartaUtara, Bekasi, Bogor, Depok, KotaBekasi, KotaBogor", "unit_count": 13 }, "geometry": { "type": "MultiPolygon", "coordinates": [ [ [ [ 106.6831, -6.7459 ], [ 106.6758, -6.7379 ], [ 106.6732, -6.7316 ], [ 106.6675, -6.7366 ], [ 106.6594, -6.7317 ], [ 106.656, -6.7393 ], [ 106.6577, -6.745 ], [ 106.6561, -6.7477 ], [ 106.6423, -6.749 ], [ 106.6317, -6.755 ], [ 106.63, -6.7522 ], [ 106.623, -6.749 ], [ 106.5991, -6.7488 ], [ 106.589, -6.7437 ], [ 106.5847, -6.7372 ], [ 106.5827, -6.7219 ], [ 106.5802, -6.7186 ], [ 106.5759, -6.7174 ], [ 106.5741, -6.7202 ], [ 106.5686, -6.7226 ], [ 106.5666, -6.7277 ], [ 106.5608, -6.7335 ], [ 106.5599, -6.7383 ], [ 106.5479, -6.7508 ], [ 106.5333, -6.7515 ], [ 106.5257, -6.7576 ], [ 106.5248, -6.7623 ], [ 106.5147, -6.7596 ], [ 106.4984, -6.7522 ], [ 106.4671, -6.7512 ], [ 106.4632, -6.7369 ], [ 106.4513, -6.7283 ], [ 106.4515, -6.7145 ], [ 106.4498, -6.7084 ], [ 106.4459, -6.703 ], [ 106.436, -6.695 ], [ 106.4292, -6.681 ], [ 106.4315, -6.6527 ], [ 106.4303, -6.625 ], [ 106.4315, -6.6233 ], [ 106.4288, -6.6186 ], [ 106.4274, -6.6108 ], [ 106.4304, -6.5905 ], [ 106.4244, -6.569 ], [ 106.4163, -6.5598 ], [ 106.4233, -6.5505 ], [ 106.4159, -6.5443 ], [ 106.4087, -6.5345 ], [ 106.4075, -6.5239 ], [ 106.4048, -6.522 ], [ 106.4035, -6.5166 ], [ 106.406, -6.4964 ], [ 106.4097, -6.4926 ], [ 106.4126, -6.4831 ], [ 106.4113, -6.4773 ], [ 106.4117, -6.4674 ], [ 106.4075, -6.4604 ], [ 106.4047, -6.4592 ], [ 106.4049, -6.4568 ], [ 106.4012, -6.4557 ], [ 106.4011, -6.453 ], [ 106.407, -6.4539 ], [ 106.4249, -6.4491 ], [ 106.4403, -6.45 ], [ 106.4404, -6.4472 ], [ 106.4424, -6.4451 ], [ 106.4405, -6.4442 ], [ 106.4387, -6.4455 ], [ 106.438, -6.4442 ], [ 106.441, -6.4413 ], [ 106.4436, -6.4411 ], [ 106.4464, -6.4353 ], [ 106.4503, -6.4341 ], [ 106.448, -6.4303 ], [ 106.4529, -6.4284 ], [ 106.4499, -6.4269 ], [ 106.4546, -6.4272 ], [ 106.4496, -6.4213 ], [ 106.4463, -6.4231 ], [ 106.4446, -6.4223 ], [ 106.4463, -6.4193 ], [ 106.454, -6.4187 ], [ 106.4539, -6.4138 ], [ 106.4499, -6.413 ], [ 106.451, -6.407 ], [ 106.447, -6.4107 ], [ 106.4442, -6.4079 ], [ 106.444, -6.4048 ], [ 106.4393, -6.4044 ], [ 106.4382, -6.3996 ], [ 106.4418, -6.3982 ], [ 106.442, -6.3963 ], [ 106.44, -6.3977 ], [ 106.434, -6.3938 ], [ 106.4354, -6.3923 ], [ 106.4384, -6.3943 ], [ 106.4375, -6.3913 ], [ 106.4353, -6.3901 ], [ 106.438, -6.3879 ], [ 106.4339, -6.385 ], [ 106.4319, -6.377 ], [ 106.4274, -6.3765 ], [ 106.4308, -6.3735 ], [ 106.4291, -6.3727 ], [ 106.4285, -6.3694 ], [ 106.432, -6.3668 ], [ 106.4298, -6.363 ], [ 106.4308, -6.3572 ], [ 106.4284, -6.3568 ], [ 106.4268, -6.3539 ], [ 106.4294, -6.3505 ], [ 106.4254, -6.3498 ], [ 106.4267, -6.3481 ], [ 106.428820866590641, -6.347940935005702 ], [ 106.4222, -6.3466 ], [ 106.4206, -6.3492 ], [ 106.4184, -6.3464 ], [ 106.4168, -6.3478 ], [ 106.4158, -6.3461 ], [ 106.4138, -6.3462 ], [ 106.4132, -6.3442 ], [ 106.4103, -6.3451 ], [ 106.4107, -6.3392 ], [ 106.4059, -6.3403 ], [ 106.4034, -6.3364 ], [ 106.4043, -6.3338 ], [ 106.3997, -6.3324 ], [ 106.4014, -6.3318 ], [ 106.4024, -6.3258 ], [ 106.3994, -6.3275 ], [ 106.3988, -6.326 ], [ 106.4007, -6.3241 ], [ 106.3978, -6.3247 ], [ 106.3997, -6.3188 ], [ 106.3969, -6.3172 ], [ 106.3993, -6.316 ], [ 106.3919, -6.3139 ], [ 106.3945, -6.3139 ], [ 106.3958, -6.3069 ], [ 106.3945, -6.3052 ], [ 106.3974, -6.3049 ], [ 106.3989, -6.3026 ], [ 106.3981, -6.2966 ], [ 106.3947, -6.2933 ], [ 106.3928, -6.2835 ], [ 106.3903, -6.2818 ], [ 106.3913, -6.2796 ], [ 106.3941, -6.2812 ], [ 106.3951, -6.2799 ], [ 106.3931, -6.2785 ], [ 106.3923, -6.2747 ], [ 106.3893, -6.2768 ], [ 106.3874, -6.2752 ], [ 106.3891, -6.2721 ], [ 106.3877, -6.2701 ], [ 106.3894, -6.2686 ], [ 106.3848, -6.266 ], [ 106.3878, -6.2647 ], [ 106.3858, -6.2614 ], [ 106.3828, -6.2619 ], [ 106.386, -6.2527 ], [ 106.3852, -6.2489 ], [ 106.3873, -6.2482 ], [ 106.3886, -6.2449 ], [ 106.3865, -6.2405 ], [ 106.3839, -6.2402 ], [ 106.3859, -6.2382 ], [ 106.3843, -6.2323 ], [ 106.3871, -6.2303 ], [ 106.3855, -6.2292 ], [ 106.3862, -6.2279 ], [ 106.3818, -6.2267 ], [ 106.3833, -6.224 ], [ 106.3813, -6.2209 ], [ 106.3783, -6.2199 ], [ 106.3796, -6.2186 ], [ 106.3731, -6.2216 ], [ 106.3704, -6.2188 ], [ 106.367, -6.218 ], [ 106.3664, -6.2148 ], [ 106.3682, -6.2136 ], [ 106.3679, -6.2164 ], [ 106.37, -6.2164 ], [ 106.3691, -6.2126 ], [ 106.3703, -6.2099 ], [ 106.3729, -6.2122 ], [ 106.3744, -6.2118 ], [ 106.3728, -6.2079 ], [ 106.377, -6.2048 ], [ 106.3766, -6.2015 ], [ 106.3793, -6.2008 ], [ 106.3783, -6.1958 ], [ 106.3728, -6.1958 ], [ 106.3738, -6.1915 ], [ 106.378, -6.1877 ], [ 106.3801, -6.189 ], [ 106.3802, -6.1863 ], [ 106.3857, -6.1862 ], [ 106.3875, -6.1794 ], [ 106.3894, -6.1804 ], [ 106.3908, -6.1791 ], [ 106.3913, -6.1765 ], [ 106.3888, -6.1767 ], [ 106.3889, -6.1753 ], [ 106.3943, -6.1706 ], [ 106.3909, -6.1697 ], [ 106.3902, -6.1664 ], [ 106.3931, -6.1664 ], [ 106.3937, -6.165 ], [ 106.3903, -6.1627 ], [ 106.3928, -6.1619 ], [ 106.3928, -6.1604 ], [ 106.3875, -6.1573 ], [ 106.3927, -6.1568 ], [ 106.3926, -6.1518 ], [ 106.3788, -6.1348 ], [ 106.3772, -6.1289 ], [ 106.3719, -6.1292 ], [ 106.3677, -6.1273 ], [ 106.3622, -6.1213 ], [ 106.3646, -6.1204 ], [ 106.3619, -6.1165 ], [ 106.3559, -6.1136 ], [ 106.3539, -6.1102 ], [ 106.3517, -6.1111 ], [ 106.3507, -6.1099 ], [ 106.3498, -6.1027 ], [ 106.3528, -6.1011 ], [ 106.3502, -6.0976 ], [ 106.3526, -6.0968 ], [ 106.3535, -6.0924 ], [ 106.3511, -6.0921 ], [ 106.3527, -6.0893 ], [ 106.3484, -6.0866 ], [ 106.34, -6.0746 ], [ 106.3394, -6.0632 ], [ 106.35, -6.0625 ], [ 106.3505, -6.0597 ], [ 106.3489, -6.0573 ], [ 106.3517, -6.0576 ], [ 106.3562, -6.0497 ], [ 106.3591, -6.0498 ], [ 106.3577, -6.0466 ], [ 106.3627, -6.0413 ], [ 106.3708, -6.0373 ], [ 106.3723, -6.0441 ], [ 106.3743, -6.0406 ], [ 106.3787, -6.0384 ], [ 106.3799, -6.0348 ], [ 106.3831, -6.0322 ], [ 106.383, -6.0297 ], [ 106.3852, -6.0312 ], [ 106.3855, -6.0287 ], [ 106.3874, -6.0311 ], [ 106.389, -6.0308 ], [ 106.3881, -6.0279 ], [ 106.3965, -6.0291 ], [ 106.3982, -6.0278 ], [ 106.4012, -6.0303 ], [ 106.4075, -6.0309 ], [ 106.4131, -6.0239 ], [ 106.4281, -6.0315 ], [ 106.4354, -6.0324 ], [ 106.4406, -6.0315 ], [ 106.4419, -6.0278 ], [ 106.4421, -6.0309 ], [ 106.446, -6.0337 ], [ 106.4591, -6.0376 ], [ 106.4609, -6.0367 ], [ 106.4712, -6.0438 ], [ 106.4823, -6.0457 ], [ 106.4973, -6.0416 ], [ 106.5089, -6.0359 ], [ 106.517, -6.0293 ], [ 106.5195, -6.0299 ], [ 106.5247, -6.025 ], [ 106.5231, -6.0233 ], [ 106.5255, -6.0237 ], [ 106.5277, -6.0218 ], [ 106.5252, -6.0204 ], [ 106.53, -6.0139 ], [ 106.5355, -6.0104 ], [ 106.5525, -6.0242 ], [ 106.5585, -6.0252 ], [ 106.5686, -6.0304 ], [ 106.5782, -6.0312 ], [ 106.5877, -6.0296 ], [ 106.5974, -6.0254 ], [ 106.6129, -6.0231 ], [ 106.6212, -6.0172 ], [ 106.633, -6.005 ], [ 106.6392, -6.0036 ], [ 106.6436, -6.0058 ], [ 106.6391, -6.0079 ], [ 106.6362, -6.0109 ], [ 106.639, -6.0085 ], [ 106.65, -6.0066 ], [ 106.6516, -6.0083 ], [ 106.6505, -6.0097 ], [ 106.6533, -6.0159 ], [ 106.658, -6.0181 ], [ 106.657, -6.0218 ], [ 106.6634, -6.023 ], [ 106.6794, -6.0127 ], [ 106.6829, -6.0166 ], [ 106.6994, -6.0261 ], [ 106.704, -6.0314 ], [ 106.7103, -6.0349 ], [ 106.7166, -6.0448 ], [ 106.7114, -6.0458 ], [ 106.7097, -6.0489 ], [ 106.7095, -6.0556 ], [ 106.7126, -6.069 ], [ 106.724, -6.0882 ], [ 106.711, -6.0956 ], [ 106.7186, -6.0919 ], [ 106.7221, -6.0919 ], [ 106.7254, -6.089 ], [ 106.7269, -6.0896 ], [ 106.7263, -6.0913 ], [ 106.7283, -6.0942 ], [ 106.7381, -6.1012 ], [ 106.7448, -6.1022 ], [ 106.7485, -6.0999 ], [ 106.7509, -6.1025 ], [ 106.7573, -6.1039 ], [ 106.7627, -6.1036 ], [ 106.766, -6.101 ], [ 106.7673, -6.1032 ], [ 106.7673, -6.1018 ], [ 106.7709, -6.1043 ], [ 106.7717, -6.1034 ], [ 106.772, -6.105 ], [ 106.7767, -6.1036 ], [ 106.7745, -6.1101 ], [ 106.7765, -6.106 ], [ 106.7844, -6.1086 ], [ 106.7853, -6.1112 ], [ 106.7855, -6.1081 ], [ 106.7903, -6.108 ], [ 106.7904, -6.0936 ], [ 106.7933, -6.0924 ], [ 106.797, -6.0941 ], [ 106.7958, -6.1054 ], [ 106.7961, -6.1089 ], [ 106.7963, -6.1095 ], [ 106.8006, -6.1083 ], [ 106.7987, -6.0968 ], [ 106.8002, -6.0965 ], [ 106.8023, -6.1023 ], [ 106.8044, -6.1019 ], [ 106.8036, -6.0945 ], [ 106.8074, -6.1149 ], [ 106.8118, -6.1227 ], [ 106.8119, -6.1192 ], [ 106.8133, -6.1207 ], [ 106.8165, -6.1199 ], [ 106.8172, -6.1149 ], [ 106.8206, -6.1154 ], [ 106.8202, -6.1186 ], [ 106.8223, -6.1196 ], [ 106.8221, -6.122 ], [ 106.8233, -6.1173 ], [ 106.8288, -6.1173 ], [ 106.8301, -6.1209 ], [ 106.8426, -6.1211 ], [ 106.8424, -6.1225 ], [ 106.8393, -6.1226 ], [ 106.8402, -6.124 ], [ 106.8433, -6.1235 ], [ 106.8443, -6.1208 ], [ 106.8574, -6.1164 ], [ 106.8593, -6.1142 ], [ 106.8577, -6.111 ], [ 106.8608, -6.1102 ], [ 106.8613, -6.1145 ], [ 106.8634, -6.114 ], [ 106.8639, -6.1116 ], [ 106.8728, -6.1044 ], [ 106.8721, -6.1084 ], [ 106.8649, -6.1125 ], [ 106.8647, -6.1202 ], [ 106.8629, -6.1211 ], [ 106.8664, -6.1202 ], [ 106.8653, -6.1136 ], [ 106.8678, -6.112 ], [ 106.8688, -6.113 ], [ 106.8714, -6.1104 ], [ 106.8703, -6.1147 ], [ 106.8728, -6.1144 ], [ 106.8746, -6.1045 ], [ 106.8767, -6.1018 ], [ 106.8774, -6.1052 ], [ 106.8756, -6.1113 ], [ 106.8772, -6.1068 ], [ 106.8773, -6.1102 ], [ 106.8785, -6.1099 ], [ 106.8787, -6.1023 ], [ 106.8802, -6.1021 ], [ 106.8787, -6.1014 ], [ 106.8791, -6.095 ], [ 106.8798, -6.0985 ], [ 106.8817, -6.0935 ], [ 106.8822, -6.1064 ], [ 106.8838, -6.1064 ], [ 106.8845, -6.0961 ], [ 106.887, -6.0973 ], [ 106.8867, -6.1065 ], [ 106.888, -6.1065 ], [ 106.8883, -6.0973 ], [ 106.8909, -6.0973 ], [ 106.8907, -6.1068 ], [ 106.8923, -6.1068 ], [ 106.8926, -6.0974 ], [ 106.9054, -6.0978 ], [ 106.9052, -6.107 ], [ 106.9067, -6.1087 ], [ 106.9072, -6.1041 ], [ 106.9104, -6.1034 ], [ 106.9103, -6.1017 ], [ 106.9079, -6.1009 ], [ 106.9093, -6.0989 ], [ 106.9134, -6.0987 ], [ 106.9152, -6.1005 ], [ 106.9163, -6.099 ], [ 106.9188, -6.0991 ], [ 106.9196, -6.1043 ], [ 106.9215, -6.1035 ], [ 106.9197, -6.1034 ], [ 106.9203, -6.1007 ], [ 106.9258, -6.1001 ], [ 106.9264, -6.0981 ], [ 106.9384, -6.096 ], [ 106.9403, -6.0982 ], [ 106.9414, -6.0961 ], [ 106.959, -6.0938 ], [ 106.969, -6.0907 ], [ 106.9908, -6.0873 ], [ 106.9971, -6.0815 ], [ 106.996, -6.0777 ], [ 106.9979, -6.0768 ], [ 107.0072, -6.0821 ], [ 107.0077, -6.0807 ], [ 107.0121, -6.0808 ], [ 107.0166, -6.0785 ], [ 107.0139, -6.0752 ], [ 107.0083, -6.0735 ], [ 107.0009, -6.0679 ], [ 106.9985, -6.059 ], [ 106.9915, -6.0537 ], [ 106.9946, -6.0516 ], [ 106.9894, -6.0496 ], [ 106.9967, -6.0501 ], [ 106.9987, -6.048 ], [ 107.0059, -6.0497 ], [ 107.0086, -6.0427 ], [ 107.0047, -6.0419 ], [ 107.0055, -6.038 ], [ 107.0121, -6.0332 ], [ 107.0151, -6.0345 ], [ 107.0152, -6.0296 ], [ 107.0126, -6.025 ], [ 107.01, -6.0238 ], [ 107.0012, -6.0247 ], [ 106.9931, -6.0281 ], [ 106.9931, -6.0261 ], [ 106.992, -6.0262 ], [ 106.9938, -6.0201 ], [ 106.9928, -6.0145 ], [ 106.989, -6.0108 ], [ 106.9845, -6.0109 ], [ 106.9894, -6.0032 ], [ 107.001, -6.0025 ], [ 107.0078, -5.9982 ], [ 107.0122, -5.9806 ], [ 107.0145, -5.9807 ], [ 107.0135, -5.977 ], [ 107.0167, -5.9709 ], [ 107.0162, -5.9585 ], [ 107.0094, -5.9428 ], [ 107.006, -5.9402 ], [ 106.9932, -5.9395 ], [ 106.9986, -5.9356 ], [ 106.9928, -5.9381 ], [ 106.9908, -5.9368 ], [ 106.9998, -5.9329 ], [ 107.0157, -5.918 ], [ 107.0244, -5.9144 ], [ 107.0314, -5.9138 ], [ 107.0386, -5.9162 ], [ 107.0434, -5.9212 ], [ 107.07, -5.9327 ], [ 107.092, -5.9367 ], [ 107.1001, -5.9352 ], [ 107.0936, -5.9575 ], [ 107.0971, -5.9613 ], [ 107.0896, -5.9684 ], [ 107.091, -5.9727 ], [ 107.0885, -5.9756 ], [ 107.09, -5.9764 ], [ 107.0856, -5.9793 ], [ 107.0886, -5.9801 ], [ 107.0876, -5.9823 ], [ 107.0899, -5.9834 ], [ 107.0878, -5.9853 ], [ 107.0848, -5.985 ], [ 107.0872, -5.9872 ], [ 107.0844, -5.9908 ], [ 107.0875, -5.9928 ], [ 107.0883, -5.9954 ], [ 107.0846, -6.0023 ], [ 107.092, -6.0058 ], [ 107.0936, -6.0143 ], [ 107.0997, -6.0145 ], [ 107.1016, -6.0162 ], [ 107.095, -6.0221 ], [ 107.0943, -6.0277 ], [ 107.0961, -6.0279 ], [ 107.0993, -6.025 ], [ 107.1051, -6.0288 ], [ 107.1113, -6.0289 ], [ 107.1133, -6.0388 ], [ 107.1191, -6.0396 ], [ 107.1217, -6.0471 ], [ 107.1265, -6.0461 ], [ 107.1278, -6.0474 ], [ 107.1244, -6.0509 ], [ 107.1266, -6.0543 ], [ 107.1285, -6.0546 ], [ 107.1362, -6.0496 ], [ 107.1368, -6.0556 ], [ 107.1327, -6.0557 ], [ 107.1307, -6.0622 ], [ 107.1335, -6.0636 ], [ 107.1357, -6.0629 ], [ 107.1384, -6.0579 ], [ 107.1405, -6.0572 ], [ 107.1404, -6.0636 ], [ 107.1436, -6.0713 ], [ 107.1516, -6.0728 ], [ 107.1568, -6.0679 ], [ 107.1596, -6.0677 ], [ 107.1719, -6.0759 ], [ 107.177, -6.0817 ], [ 107.1822, -6.0773 ], [ 107.1857, -6.0766 ], [ 107.1881, -6.079 ], [ 107.187, -6.0863 ], [ 107.1891, -6.0893 ], [ 107.2026, -6.0935 ], [ 107.2117, -6.0997 ], [ 107.2215, -6.1038 ], [ 107.2301, -6.1026 ], [ 107.2375, -6.1044 ], [ 107.2433, -6.101 ], [ 107.2468, -6.1011 ], [ 107.2482, -6.1037 ], [ 107.2485, -6.1161 ], [ 107.2515, -6.1162 ], [ 107.2625, -6.111 ], [ 107.2653, -6.1113 ], [ 107.2694, -6.1156 ], [ 107.2706, -6.1297 ], [ 107.2728, -6.1305 ], [ 107.2779, -6.127 ], [ 107.2812, -6.1276 ], [ 107.2795, -6.1334 ], [ 107.2834, -6.1354 ], [ 107.2839, -6.1373 ], [ 107.281, -6.1448 ], [ 107.2824, -6.148 ], [ 107.2858, -6.1487 ], [ 107.289, -6.1419 ], [ 107.291, -6.1405 ], [ 107.2927, -6.1414 ], [ 107.2892, -6.1493 ], [ 107.2885, -6.1563 ], [ 107.2812, -6.1573 ], [ 107.2786, -6.162 ], [ 107.2794, -6.1711 ], [ 107.286, -6.1753 ], [ 107.2862, -6.1839 ], [ 107.2921, -6.1901 ], [ 107.2908, -6.2006 ], [ 107.296, -6.2013 ], [ 107.2965, -6.2035 ], [ 107.294, -6.2066 ], [ 107.2931, -6.2141 ], [ 107.291, -6.217 ], [ 107.2786, -6.2154 ], [ 107.2722, -6.2169 ], [ 107.2749, -6.2225 ], [ 107.2807, -6.2234 ], [ 107.2837, -6.2264 ], [ 107.2821, -6.2289 ], [ 107.2744, -6.2336 ], [ 107.2691, -6.232 ], [ 107.2745, -6.2412 ], [ 107.2778, -6.2542 ], [ 107.2734, -6.2584 ], [ 107.276, -6.2631 ], [ 107.2761, -6.267 ], [ 107.2667, -6.2738 ], [ 107.2654, -6.2788 ], [ 107.2678, -6.2801 ], [ 107.2671, -6.2846 ], [ 107.2633, -6.2801 ], [ 107.2619, -6.2819 ], [ 107.2643, -6.286 ], [ 107.2611, -6.2861 ], [ 107.2551, -6.2905 ], [ 107.255, -6.2948 ], [ 107.2487, -6.2933 ], [ 107.2478, -6.2983 ], [ 107.2457, -6.2996 ], [ 107.242, -6.2967 ], [ 107.2365, -6.2967 ], [ 107.2393, -6.3037 ], [ 107.2385, -6.3061 ], [ 107.2355, -6.3071 ], [ 107.2351, -6.3007 ], [ 107.2331, -6.299 ], [ 107.233, -6.3037 ], [ 107.2294, -6.3022 ], [ 107.2238, -6.3061 ], [ 107.2242, -6.3078 ], [ 107.2276, -6.3093 ], [ 107.2246, -6.3102 ], [ 107.2239, -6.3163 ], [ 107.2218, -6.3166 ], [ 107.2199, -6.3131 ], [ 107.2176, -6.3145 ], [ 107.2181, -6.3179 ], [ 107.2231, -6.3184 ], [ 107.2247, -6.3206 ], [ 107.2186, -6.3214 ], [ 107.2191, -6.326 ], [ 107.2147, -6.33 ], [ 107.2187, -6.3311 ], [ 107.2206, -6.3345 ], [ 107.2236, -6.3354 ], [ 107.2266, -6.3492 ], [ 107.223, -6.3519 ], [ 107.215, -6.3499 ], [ 107.2131, -6.3567 ], [ 107.2153, -6.3618 ], [ 107.2132, -6.3638 ], [ 107.2107, -6.3613 ], [ 107.2075, -6.3615 ], [ 107.2104, -6.3659 ], [ 107.2055, -6.3692 ], [ 107.2048, -6.3757 ], [ 107.2105, -6.3796 ], [ 107.2128, -6.3745 ], [ 107.2144, -6.3796 ], [ 107.2191, -6.3806 ], [ 107.2187, -6.3834 ], [ 107.2212, -6.3842 ], [ 107.2199, -6.3962 ], [ 107.2221, -6.4004 ], [ 107.2214, -6.4081 ], [ 107.213, -6.4092 ], [ 107.2122, -6.4172 ], [ 107.202, -6.4139 ], [ 107.2054, -6.4217 ], [ 107.2035, -6.4235 ], [ 107.2001, -6.422 ], [ 107.1962, -6.423 ], [ 107.1977, -6.4249 ], [ 107.2037, -6.4261 ], [ 107.2067, -6.4349 ], [ 107.202, -6.4361 ], [ 107.207, -6.4411 ], [ 107.2117, -6.4493 ], [ 107.2111, -6.4525 ], [ 107.2079, -6.4493 ], [ 107.2054, -6.4519 ], [ 107.2127, -6.455 ], [ 107.2169, -6.4614 ], [ 107.215, -6.4645 ], [ 107.2132, -6.4645 ], [ 107.2089, -6.4686 ], [ 107.201, -6.4611 ], [ 107.1953, -6.4612 ], [ 107.1956, -6.4638 ], [ 107.1894, -6.4641 ], [ 107.1885, -6.4703 ], [ 107.184, -6.4716 ], [ 107.1855, -6.4673 ], [ 107.1818, -6.4678 ], [ 107.1828, -6.4735 ], [ 107.1784, -6.4739 ], [ 107.181, -6.4748 ], [ 107.1808, -6.4781 ], [ 107.1783, -6.4797 ], [ 107.1723, -6.4798 ], [ 107.171805298013254, -6.481613907284769 ], [ 107.173, -6.4827 ], [ 107.1744, -6.4906 ], [ 107.1697, -6.4923 ], [ 107.1701, -6.4966 ], [ 107.1666, -6.4972 ], [ 107.1646, -6.5009 ], [ 107.1647, -6.5109 ], [ 107.1676, -6.5113 ], [ 107.1664, -6.5161 ], [ 107.1685, -6.5172 ], [ 107.1693, -6.5228 ], [ 107.1713, -6.5232 ], [ 107.1752, -6.5295 ], [ 107.1745, -6.5327 ], [ 107.1765, -6.533 ], [ 107.1787, -6.552 ], [ 107.1843, -6.5556 ], [ 107.186, -6.5608 ], [ 107.1896, -6.5616 ], [ 107.1931, -6.5783 ], [ 107.2078, -6.5883 ], [ 107.2135, -6.5905 ], [ 107.2205, -6.5907 ], [ 107.2271, -6.6021 ], [ 107.222, -6.6125 ], [ 107.2146, -6.6201 ], [ 107.213, -6.6306 ], [ 107.2151, -6.6373 ], [ 107.2027, -6.6405 ], [ 107.1922, -6.6455 ], [ 107.1797, -6.6465 ], [ 107.1697, -6.6388 ], [ 107.1682, -6.6411 ], [ 107.169, -6.6433 ], [ 107.165, -6.647 ], [ 107.1602, -6.6455 ], [ 107.1577, -6.6475 ], [ 107.1581, -6.6501 ], [ 107.1525, -6.6498 ], [ 107.1503, -6.6541 ], [ 107.1516, -6.66 ], [ 107.1504, -6.663 ], [ 107.1403, -6.6673 ], [ 107.1377, -6.6668 ], [ 107.1346, -6.6705 ], [ 107.1302, -6.6698 ], [ 107.1211, -6.6633 ], [ 107.1132, -6.6635 ], [ 107.1099, -6.6659 ], [ 107.108, -6.6639 ], [ 107.1062, -6.6649 ], [ 107.1042, -6.6638 ], [ 107.1025, -6.6668 ], [ 107.1004, -6.6644 ], [ 107.097, -6.664 ], [ 107.0887, -6.6675 ], [ 107.0863, -6.6672 ], [ 107.0849, -6.6649 ], [ 107.0789, -6.6649 ], [ 107.0733, -6.6625 ], [ 107.0715, -6.6647 ], [ 107.0685, -6.6652 ], [ 107.0659, -6.662 ], [ 107.0552, -6.6592 ], [ 107.0513, -6.6566 ], [ 107.0468, -6.6582 ], [ 107.0459, -6.6567 ], [ 107.0428, -6.6567 ], [ 107.0385, -6.6609 ], [ 107.0353, -6.6605 ], [ 107.0331, -6.6629 ], [ 107.0254, -6.6624 ], [ 107.0159, -6.668 ], [ 107.0094, -6.6647 ], [ 107.0061, -6.6682 ], [ 107.0004, -6.6665 ], [ 106.991, -6.6685 ], [ 106.9951, -6.6785 ], [ 107.0034, -6.6854 ], [ 107.0066, -6.6921 ], [ 107.0031, -6.6975 ], [ 107.0, -6.6991 ], [ 106.994, -6.7062 ], [ 106.996, -6.7061 ], [ 106.9932, -6.7151 ], [ 106.9992, -6.7301 ], [ 106.9965, -6.7378 ], [ 106.9925, -6.7372 ], [ 106.9879, -6.7306 ], [ 106.9881, -6.7398 ], [ 106.9858, -6.7429 ], [ 106.9784, -6.7434 ], [ 106.9757, -6.747 ], [ 106.974, -6.7518 ], [ 106.9758, -6.7598 ], [ 106.9743, -6.7653 ], [ 106.9715, -6.7675 ], [ 106.9652, -6.7703 ], [ 106.9623, -6.7646 ], [ 106.9583, -6.7614 ], [ 106.947, -6.7608 ], [ 106.9345, -6.7685 ], [ 106.9279, -6.7814 ], [ 106.918, -6.7875 ], [ 106.8998, -6.7881 ], [ 106.897, -6.7862 ], [ 106.8873, -6.7854 ], [ 106.8824, -6.7821 ], [ 106.8712, -6.7816 ], [ 106.8649, -6.7781 ], [ 106.8489, -6.777 ], [ 106.8439, -6.7756 ], [ 106.8373, -6.7689 ], [ 106.8312, -6.767 ], [ 106.8227, -6.7696 ], [ 106.8144, -6.7687 ], [ 106.8072, -6.7643 ], [ 106.8013, -6.7629 ], [ 106.7979, -6.7552 ], [ 106.793, -6.7526 ], [ 106.7867, -6.7559 ], [ 106.7776, -6.7548 ], [ 106.7665, -6.7443 ], [ 106.7643, -6.7367 ], [ 106.7578, -6.7275 ], [ 106.7415, -6.7156 ], [ 106.7326, -6.7157 ], [ 106.7252, -6.7184 ], [ 106.7154, -6.728 ], [ 106.7027, -6.7334 ], [ 106.6994, -6.7417 ], [ 106.6973, -6.7432 ], [ 106.6831, -6.7459 ] ], [ [ 106.687234369150133, -6.097277573942343 ], [ 106.689, -6.1064 ], [ 106.687556031843229, -6.097254868340477 ], [ 106.687234369150133, -6.097277573942343 ] ], [ [ 106.7777, -6.2137 ], [ 106.7832, -6.2129 ], [ 106.783197041080143, -6.212716546969262 ], [ 106.7777, -6.2136 ], [ 106.7774, -6.2171 ], [ 106.7785, -6.2248 ], [ 106.7777, -6.2137 ] ], [ [ 106.792580499597094, -6.208503948428685 ], [ 106.794393269230781, -6.207816346153844 ], [ 106.792466806575732, -6.20806054564533 ], [ 106.792580499597094, -6.208503948428685 ] ], [ [ 106.7957, -6.2291 ], [ 106.797077777777773, -6.2291 ], [ 106.795770122525909, -6.228480584354384 ], [ 106.7957, -6.2291 ] ], [ [ 106.7992, -6.2291 ], [ 106.8186, -6.2144 ], [ 106.797783221476507, -6.2291 ], [ 106.7992, -6.2291 ] ], [ [ 106.8461, -6.2086 ], [ 106.846301182086833, -6.208526233234828 ], [ 106.8227, -6.2027 ], [ 106.8461, -6.2086 ] ], [ [ 106.8491, -6.2075 ], [ 106.8499, -6.2056 ], [ 106.846937988826809, -6.208292737430174 ], [ 106.8491, -6.2075 ] ], [ [ 106.8539, -6.2066 ], [ 106.8540125, -6.20648125 ], [ 106.8499, -6.2056 ], [ 106.8539, -6.2066 ] ], [ [ 106.8563, -6.2162 ], [ 106.856546931407948, -6.216584115523457 ], [ 106.856770358306179, -6.215556351791538 ], [ 106.8563, -6.2162 ] ], [ [ 106.8572, -6.2176 ], [ 106.8635, -6.2163 ], [ 106.856677560975612, -6.21678731707317 ], [ 106.8572, -6.2176 ] ], [ [ 106.8647, -6.2368 ], [ 106.8668, -6.2388 ], [ 106.8665312, -6.2381952 ], [ 106.8647, -6.2368 ] ], [ [ 106.8443, -6.3166 ], [ 106.844093383270916, -6.317385143570534 ], [ 106.845211449275368, -6.316791884057971 ], [ 106.8443, -6.3166 ] ], [ [ 106.84, -6.3186 ], [ 106.83864173764907, -6.320277853492329 ], [ 106.84189797657082, -6.318550053248137 ], [ 106.84, -6.3186 ] ], [ [ 106.8383, -6.3207 ], [ 106.83867716049383, -6.320801543209877 ], [ 106.838603802281369, -6.320324714828902 ], [ 106.8383, -6.3207 ] ], [ [ 106.84174029850746, -6.327189220563843 ], [ 106.8422, -6.3277 ], [ 106.8431, -6.3263 ], [ 106.842710277246653, -6.325859990439766 ], [ 106.84174029850746, -6.327189220563843 ] ], [ [ 106.8402, -6.3293 ], [ 106.840231512981191, -6.329322649955238 ], [ 106.840292236024837, -6.32917360248447 ], [ 106.8402, -6.3293 ] ], [ [ 106.8399, -6.3328 ], [ 106.8392, -6.3404 ], [ 106.839962130177511, -6.332778698224851 ], [ 106.8399, -6.3328 ] ], [ [ 106.8407, -6.3425 ], [ 106.838, -6.3412 ], [ 106.84, -6.3426 ], [ 106.8461, -6.342 ], [ 106.8409, -6.342 ], [ 106.8392, -6.3404 ], [ 106.8407, -6.3425 ] ], [ [ 106.8353, -6.3441 ], [ 106.8363, -6.3451 ], [ 106.835625301204814, -6.343750602409641 ], [ 106.8353, -6.3441 ] ], [ [ 106.8064, -6.3634 ], [ 106.803, -6.3634 ], [ 106.8106, -6.364 ], [ 106.8064, -6.3634 ] ], [ [ 106.794278666666671, -6.36384666666667 ], [ 106.7947, -6.3649 ], [ 106.7999, -6.3655 ], [ 106.794278666666671, -6.36384666666667 ] ], [ [ 106.792612600536202, -6.359032171581772 ], [ 106.7925, -6.3594 ], [ 106.79271, -6.359925 ], [ 106.792612600536202, -6.359032171581772 ] ], [ [ 106.794, -6.3544 ], [ 106.7926, -6.3523 ], [ 106.793974820143887, -6.354460431654676 ], [ 106.794, -6.3544 ] ], [ [ 106.8034, -6.33 ], [ 106.804466666666656, -6.324933333333348 ], [ 106.8041, -6.3253 ], [ 106.802521476510066, -6.330627516778521 ], [ 106.8034, -6.33 ] ], [ [ 106.8061, -6.3242 ], [ 106.80655, -6.32285 ], [ 106.805135714285726, -6.324264285714285 ], [ 106.8061, -6.3242 ] ], [ [ 106.8092, -6.3149 ], [ 106.808697005988023, -6.314923952095809 ], [ 106.809140298507472, -6.315079104477612 ], [ 106.8092, -6.3149 ] ], [ [ 106.792676923076925, -6.315686813186813 ], [ 106.7927, -6.3157 ], [ 106.793039843749995, -6.31566953125 ], [ 106.792676923076925, -6.315686813186813 ] ], [ [ 106.7768, -6.3153 ], [ 106.7799, -6.3165 ], [ 106.779179090909082, -6.316999090909095 ], [ 106.781063879598662, -6.316208695652175 ], [ 106.7768, -6.3153 ] ], [ [ 106.7786, -6.3174 ], [ 106.7792, -6.3214 ], [ 106.778714382402711, -6.317320812182739 ], [ 106.7786, -6.3174 ] ], [ [ 106.7768, -6.3271 ], [ 106.7776, -6.3291 ], [ 106.776836697247703, -6.327096330275229 ], [ 106.7768, -6.3271 ] ], [ [ 106.7242, -6.36 ], [ 106.72, -6.3604 ], [ 106.7192, -6.3621 ], [ 106.7203, -6.3604 ], [ 106.7594, -6.3608 ], [ 106.7242, -6.36 ] ], [ [ 106.721389655172402, -6.375679310344831 ], [ 106.7227, -6.3743 ], [ 106.722586829268295, -6.374216097560974 ], [ 106.721389655172402, -6.375679310344831 ] ], [ [ 106.7208, -6.3764 ], [ 106.7238, -6.3766 ], [ 106.720875630252095, -6.37630756302521 ], [ 106.7208, -6.3764 ] ], [ [ 106.834297457627116, -6.450343220338984 ], [ 106.8339, -6.4504 ], [ 106.834002963776072, -6.45071624588364 ], [ 106.834297457627116, -6.450343220338984 ] ], [ [ 106.8371, -6.4506 ], [ 106.8442, -6.4474 ], [ 106.844233841463421, -6.44732667682927 ], [ 106.8381, -6.4498 ], [ 106.836352991452998, -6.450049572649572 ], [ 106.8371, -6.4506 ] ], [ [ 106.844219107806694, -6.437183940520446 ], [ 106.8441, -6.4372 ], [ 106.844024758842437, -6.437419935691326 ], [ 106.844219107806694, -6.437183940520446 ] ], [ [ 106.892019047619044, -6.427204761904764 ], [ 106.892, -6.4272 ], [ 106.892009195402295, -6.427212643678166 ], [ 106.892019047619044, -6.427204761904764 ] ], [ [ 106.906, -6.4161 ], [ 106.905955203619911, -6.415846153846141 ], [ 106.9041, -6.419 ], [ 106.906, -6.4161 ] ], [ [ 106.905437406483799, -6.41291197007482 ], [ 106.9052, -6.4127 ], [ 106.905663636363656, -6.414193939394003 ], [ 106.905437406483799, -6.41291197007482 ] ], [ [ 106.914421779859481, -6.414520843091344 ], [ 106.9145, -6.4128 ], [ 106.9129, -6.4119 ], [ 106.914421779859481, -6.414520843091344 ] ], [ [ 106.9147, -6.415 ], [ 106.916366666666605, -6.411066666666787 ], [ 106.914538805970153, -6.414722388059706 ], [ 106.9147, -6.415 ] ], [ [ 106.9172, -6.4091 ], [ 106.9151, -6.4066 ], [ 106.91703160621762, -6.409497409326415 ], [ 106.9172, -6.4091 ] ], [ [ 106.916072131147544, -6.401270491803278 ], [ 106.916, -6.4013 ], [ 106.9171, -6.4037 ], [ 106.916072131147544, -6.401270491803278 ] ], [ [ 106.9182, -6.4006 ], [ 106.917961240310078, -6.400497674418605 ], [ 106.9171, -6.40085 ], [ 106.9182, -6.4006 ] ], [ [ 106.921, -6.3969 ], [ 106.9194, -6.3956 ], [ 106.9062, -6.3944 ], [ 106.9188, -6.3956 ], [ 106.921, -6.3969 ] ], [ [ 106.9338, -6.3836 ], [ 106.9315, -6.384 ], [ 106.9292, -6.3862 ], [ 106.9338, -6.3836 ] ], [ [ 106.938, -6.3773 ], [ 106.937990159574468, -6.376985106382969 ], [ 106.937864802386272, -6.37725861297539 ], [ 106.938, -6.3773 ] ], [ [ 106.942, -6.3692 ], [ 106.9386, -6.3706 ], [ 106.938603478260859, -6.370655652173918 ], [ 106.942, -6.3692 ] ], [ [ 106.9434, -6.3692 ], [ 106.9455, -6.3685 ], [ 106.9434, -6.369072727272727 ], [ 106.9434, -6.3692 ] ], [ [ 106.9523, -6.3538 ], [ 106.952124095139595, -6.35355708376422 ], [ 106.9495, -6.3541 ], [ 106.9523, -6.3538 ] ], [ [ 106.952, -6.3491 ], [ 106.9504, -6.3505 ], [ 106.95048, -6.35062 ], [ 106.952, -6.3491 ] ], [ [ 106.954, -6.3492 ], [ 106.9521, -6.3486 ], [ 106.953909932279899, -6.349457336343115 ], [ 106.954, -6.3492 ] ], [ [ 106.9546, -6.3444 ], [ 106.9503, -6.344 ], [ 106.950379711637481, -6.344203707518022 ], [ 106.9546, -6.3444 ] ], [ [ 106.9617, -6.336 ], [ 106.961752, -6.335792 ], [ 106.9594, -6.3354 ], [ 106.9617, -6.336 ] ], [ [ 106.9646, -6.3253 ], [ 106.964482442748093, -6.325291603053435 ], [ 106.9637, -6.3267 ], [ 106.9646, -6.3253 ] ], [ [ 106.9637, -6.3176 ], [ 106.963438461538459, -6.317246153846154 ], [ 106.9603, -6.3214 ], [ 106.9637, -6.3176 ] ], [ [ 106.960380363636361, -6.313108727272718 ], [ 106.961, -6.3152 ], [ 106.962732228915669, -6.316290662650605 ], [ 106.960380363636361, -6.313108727272718 ] ], [ [ 106.9634, -6.3122 ], [ 106.9602, -6.3125 ], [ 106.960344728079917, -6.312988457269701 ], [ 106.9634, -6.3122 ] ], [ [ 106.964, -6.3085 ], [ 106.9613, -6.3083 ], [ 106.961456603773584, -6.308590835579515 ], [ 106.964, -6.3085 ] ], [ [ 106.964610526315795, -6.3052 ], [ 106.9645, -6.3052 ], [ 106.9666, -6.307 ], [ 106.964610526315795, -6.3052 ] ], [ [ 106.9701, -6.3056 ], [ 106.9695, -6.303 ], [ 106.969982758620688, -6.305510344827583 ], [ 106.9701, -6.3056 ] ], [ [ 106.9733, -6.3116 ], [ 106.9708, -6.3023 ], [ 106.970708211606791, -6.302329372285828 ], [ 106.9733, -6.3116 ] ], [ [ 106.980756662566634, -6.315033989339893 ], [ 106.9809, -6.3149 ], [ 106.9733, -6.3116 ], [ 106.980756662566634, -6.315033989339893 ] ], [ [ 106.9686, -6.3415 ], [ 106.967696774193541, -6.341838709677421 ], [ 106.968766666666667, -6.341580459770115 ], [ 106.9686, -6.3415 ] ], [ [ 106.9662, -6.3424 ], [ 106.97, -6.3464 ], [ 106.966335111111107, -6.342349333333333 ], [ 106.9662, -6.3424 ] ], [ [ 106.993, -6.3705 ], [ 106.994210625535558, -6.367095115681236 ], [ 106.993169427566357, -6.366518452190602 ], [ 106.993, -6.3705 ] ], [ [ 107.0012, -6.3793 ], [ 107.0056, -6.3778 ], [ 106.998962788778883, -6.379015264026403 ], [ 107.0012, -6.3793 ] ], [ [ 107.0103, -6.4026 ], [ 107.010528970331592, -6.402547527632344 ], [ 107.010126148409896, -6.40195288574794 ], [ 107.0103, -6.4026 ] ], [ [ 107.0202, -6.404 ], [ 107.02, -6.4005 ], [ 107.019910184372264, -6.400522212467074 ], [ 107.0202, -6.404 ] ], [ [ 107.0417, -6.4068 ], [ 107.0461, -6.4028 ], [ 107.04162657818064, -6.406787180317253 ], [ 107.0417, -6.4068 ] ], [ [ 107.0605, -6.3984 ], [ 107.061208639308859, -6.398941900647944 ], [ 107.0612, -6.3987 ], [ 107.0515, -6.3943 ], [ 107.0605, -6.3984 ] ], [ [ 107.0512, -6.4174 ], [ 107.0552, -6.4207 ], [ 107.051269565217382, -6.417260869565218 ], [ 107.0512, -6.4174 ] ], [ [ 107.0554, -6.4357 ], [ 107.05556285714286, -6.435725714285713 ], [ 107.055452004333702, -6.435672697724812 ], [ 107.0554, -6.4357 ] ], [ [ 107.0592, -6.4363 ], [ 107.0627, -6.4338 ], [ 107.058498295454541, -6.436189204545453 ], [ 107.0592, -6.4363 ] ], [ [ 106.4421, -6.3257 ], [ 106.430297222222222, -6.347830208333334 ], [ 106.4307, -6.3478 ], [ 106.4421, -6.3257 ] ], [ [ 106.4662, -6.3051 ], [ 106.4644, -6.3089 ], [ 106.466530576713822, -6.304929379760611 ], [ 106.4662, -6.3051 ] ], [ [ 106.4837, -6.3233 ], [ 106.4782, -6.3167 ], [ 106.483811824080746, -6.32434369142034 ], [ 106.4837, -6.3233 ] ], [ [ 106.4843, -6.3289 ], [ 106.483963265306116, -6.325757142857104 ], [ 106.483845743329098, -6.329459085133423 ], [ 106.4843, -6.3289 ] ], [ [ 106.476384501401682, -6.344626952342812 ], [ 106.4835, -6.3428 ], [ 106.4764, -6.3441 ], [ 106.476384501401682, -6.344626952342812 ] ], [ [ 106.497312045889089, -6.355409942638622 ], [ 106.487023759099927, -6.353487954996691 ], [ 106.4901, -6.3549 ], [ 106.497312045889089, -6.355409942638622 ] ], [ [ 106.5019, -6.3539 ], [ 106.499691828793772, -6.355578210116732 ], [ 106.5, -6.3556 ], [ 106.5019, -6.3539 ] ], [ [ 106.53, -6.3376 ], [ 106.531855607476629, -6.339553271028038 ], [ 106.5319, -6.3395 ], [ 106.53, -6.3376 ] ], [ [ 106.5133, -6.3257 ], [ 106.5146, -6.3275 ], [ 106.513461146496823, -6.325601910828024 ], [ 106.5133, -6.3257 ] ], [ [ 106.5978, -6.3626 ], [ 106.593898817267899, -6.362695150798344 ], [ 106.5939, -6.3627 ], [ 106.5978, -6.3626 ] ], [ [ 106.655293150684912, -6.353020547945134 ], [ 106.6568, -6.3595 ], [ 106.6568, -6.3573 ], [ 106.655293150684912, -6.353020547945134 ] ], [ [ 106.647, -6.3438 ], [ 106.654426893436096, -6.350560377358506 ], [ 106.6543, -6.3502 ], [ 106.647, -6.3438 ] ], [ [ 106.6305, -6.2255 ], [ 106.6395, -6.231 ], [ 106.638, -6.2297 ], [ 106.6305, -6.2255 ] ], [ [ 106.6942, -6.2301 ], [ 106.693441268423399, -6.23014283162126 ], [ 106.693463566552893, -6.230544197952216 ], [ 106.6942, -6.2301 ] ], [ [ 106.690885966460726, -6.232098940864955 ], [ 106.692376315789474, -6.2312 ], [ 106.6911, -6.2312 ], [ 106.690885966460726, -6.232098940864955 ] ], [ [ 106.743737037037036, -6.249877777777778 ], [ 106.7241, -6.2511 ], [ 106.7437, -6.2501 ], [ 106.743737037037036, -6.249877777777778 ] ], [ [ 106.7563, -6.2615 ], [ 106.7514, -6.2617 ], [ 106.755330371900826, -6.262316528925619 ], [ 106.7563, -6.2615 ] ], [ [ 106.752536704545449, -6.264669090909091 ], [ 106.752815352697098, -6.264434439834025 ], [ 106.7525, -6.2646 ], [ 106.752536704545449, -6.264669090909091 ] ], [ [ 106.7745, -6.3033 ], [ 106.7732, -6.3048 ], [ 106.77538621908127, -6.303944522968196 ], [ 106.7745, -6.3033 ] ], [ [ 106.7756, -6.3041 ], [ 106.77544729411764, -6.303988941176469 ], [ 106.7739, -6.3066 ], [ 106.7756, -6.3041 ] ], [ [ 106.7753, -6.3105 ], [ 106.773422799097077, -6.309606094808127 ], [ 106.7733, -6.3097 ], [ 106.7753, -6.3105 ] ], [ [ 106.8342, -6.6777 ], [ 106.8294, -6.6786 ], [ 106.8191, -6.6719 ], [ 106.8298, -6.679 ], [ 106.8342, -6.6777 ] ], [ [ 106.8084, -6.6524 ], [ 106.8105, -6.6493 ], [ 106.810496774193552, -6.649254838709663 ], [ 106.8084, -6.6524 ] ], [ [ 106.810451546391761, -6.648621649484566 ], [ 106.8103, -6.6465 ], [ 106.809937676056336, -6.646965845070418 ], [ 106.810451546391761, -6.648621649484566 ] ], [ [ 106.804225157232693, -6.651729559748428 ], [ 106.8052, -6.649 ], [ 106.8039, -6.6517 ], [ 106.804225157232693, -6.651729559748428 ] ], [ [ 106.8245, -6.5456 ], [ 106.825735087719295, -6.544596491228069 ], [ 106.8257, -6.544 ], [ 106.8245, -6.5456 ] ], [ [ 106.8316, -6.5993 ], [ 106.8317, -6.6108 ], [ 106.832110918585329, -6.611987811535728 ], [ 106.8316, -6.5993 ] ], [ [ 106.837110193321621, -6.62643884007031 ], [ 106.8381, -6.6293 ], [ 106.838571669218979, -6.630081623277173 ], [ 106.837110193321621, -6.62643884007031 ] ], [ [ 106.6533, -6.3623 ], [ 106.654429508196728, -6.361554098360655 ], [ 106.65127594936709, -6.362184810126583 ], [ 106.6533, -6.3623 ] ], [ [ 106.74715706371191, -6.247583656509701 ], [ 106.747077256317695, -6.245508664259928 ], [ 106.7467, -6.2467 ], [ 106.74715706371191, -6.247583656509701 ] ], [ [ 106.561, -6.181182727272724 ], [ 106.5539, -6.1837 ], [ 106.553402507836992, -6.184529153605016 ], [ 106.561, -6.1816 ], [ 106.561, -6.181182727272724 ] ], [ [ 106.5524, -6.1862 ], [ 106.5534, -6.1881 ], [ 106.552841044776116, -6.185464925373139 ], [ 106.5524, -6.1862 ] ], [ [ 106.5515, -6.1898 ], [ 106.551539819004532, -6.189810859728507 ], [ 106.5519, -6.1881 ], [ 106.5515, -6.1898 ] ], [ [ 106.6116, -6.2272 ], [ 106.611803482920294, -6.227124514400533 ], [ 106.6108, -6.2253 ], [ 106.6116, -6.2272 ] ], [ [ 106.8212, -6.1369 ], [ 106.8307, -6.1353 ], [ 106.8167, -6.1371 ], [ 106.821397813080267, -6.137291747472664 ], [ 106.8212, -6.1369 ] ], [ [ 106.8263, -6.147 ], [ 106.823450533807843, -6.141356939501788 ], [ 106.826411664295875, -6.14784864864864 ], [ 106.8263, -6.147 ] ], [ [ 106.8107, -6.1885 ], [ 106.8096, -6.1793 ], [ 106.810676999477252, -6.188503450078411 ], [ 106.8107, -6.1885 ] ], [ [ 106.796919277108429, -6.205295783132535 ], [ 106.8043, -6.1973 ], [ 106.804386888454005, -6.197003131115468 ], [ 106.7977, -6.2031 ], [ 106.796919277108429, -6.205295783132535 ] ], [ [ 106.847, -6.338 ], [ 106.846989424206811, -6.338047003525271 ], [ 106.8494, -6.3361 ], [ 106.847, -6.338 ] ], [ [ 106.851888043478255, -6.337521739130436 ], [ 106.8516, -6.3366 ], [ 106.8494, -6.3361 ], [ 106.851888043478255, -6.337521739130436 ] ], [ [ 106.8521, -6.3382 ], [ 106.852012863070541, -6.337921161825727 ], [ 106.850721875, -6.339446875 ], [ 106.8521, -6.3382 ] ], [ [ 106.8546, -6.3438 ], [ 106.850100696517401, -6.340180995024875 ], [ 106.85, -6.3403 ], [ 106.8546, -6.3438 ] ], [ [ 106.871, -6.3528 ], [ 106.8691, -6.3537 ], [ 106.8622, -6.3573 ], [ 106.871116123019561, -6.352941006523768 ], [ 106.871, -6.3528 ] ], [ [ 106.8738, -6.3562 ], [ 106.872941935483937, -6.355158064516214 ], [ 106.873774834437086, -6.356237748344369 ], [ 106.8738, -6.3562 ] ], [ [ 106.87160830115829, -6.360040347490346 ], [ 106.871531884057973, -6.359952173913046 ], [ 106.8715, -6.36 ], [ 106.87160830115829, -6.360040347490346 ] ], [ [ 106.8788, -6.361 ], [ 106.874722484756091, -6.361200533536585 ], [ 106.8766, -6.3619 ], [ 106.8788, -6.361 ] ], [ [ 106.8836, -6.3651 ], [ 106.88107222222223, -6.36646111111111 ], [ 106.8811, -6.3666 ], [ 106.8836, -6.3651 ] ], [ [ 106.8827, -6.3699 ], [ 106.883506514913662, -6.369867739403454 ], [ 106.8836, -6.3651 ], [ 106.8827, -6.3699 ] ], [ [ 106.9059, -6.361 ], [ 106.9012, -6.3695 ], [ 106.906332162661741, -6.361231515711643 ], [ 106.9059, -6.361 ] ], [ [ 106.9162, -6.3629 ], [ 106.9143, -6.3655 ], [ 106.9125, -6.3684 ], [ 106.9162, -6.3629 ] ], [ [ 106.920877777777775, -6.33092380952381 ], [ 106.9195, -6.3386 ], [ 106.9209, -6.331 ], [ 106.920877777777775, -6.33092380952381 ] ], [ [ 106.9182, -6.3279 ], [ 106.920815056179777, -6.330708764044942 ], [ 106.9202, -6.3286 ], [ 106.9182, -6.3279 ] ], [ [ 106.921395156695155, -6.323426780626789 ], [ 106.920564406779661, -6.324589830508472 ], [ 106.9215, -6.3242 ], [ 106.921395156695155, -6.323426780626789 ] ], [ [ 106.9206, -6.3083 ], [ 106.9215, -6.3109 ], [ 106.921207003891055, -6.305821400778211 ], [ 106.9206, -6.3083 ] ], [ [ 106.920803125, -6.3005 ], [ 106.920919537815124, -6.300838655462202 ], [ 106.9209, -6.3005 ], [ 106.920803125, -6.3005 ] ], [ [ 106.918440625, -6.299542968750005 ], [ 106.9189, -6.3005 ], [ 106.9192, -6.2991 ], [ 106.918440625, -6.299542968750005 ] ], [ [ 106.9152027027027, -6.297197297297298 ], [ 106.9177, -6.298 ], [ 106.9153, -6.2971 ], [ 106.9152027027027, -6.297197297297298 ] ], [ [ 106.9111, -6.296 ], [ 106.9118, -6.2983 ], [ 106.9135, -6.2989 ], [ 106.9119, -6.2983 ], [ 106.9111, -6.296 ] ], [ [ 106.9486, -6.2222 ], [ 106.948174076474402, -6.224205962410882 ], [ 106.9508, -6.2191 ], [ 106.9486, -6.2222 ] ], [ [ 106.971605339805819, -6.170806310680098 ], [ 106.9713, -6.1876 ], [ 106.9716, -6.1722 ], [ 106.971605339805819, -6.170806310680098 ] ], [ [ 107.0168, -6.354 ], [ 107.016814702044371, -6.353936668116572 ], [ 107.0069, -6.3626 ], [ 107.0168, -6.354 ] ], [ [ 107.0016, -6.3539 ], [ 107.0041, -6.3552 ], [ 107.0039, -6.3597 ], [ 107.0046, -6.3554 ], [ 107.0016, -6.3539 ] ], [ [ 106.9946, -6.366 ], [ 106.9927, -6.3648 ], [ 106.994249086161886, -6.366986945169717 ], [ 106.9946, -6.366 ] ], [ [ 106.904178278278266, -6.386589089089098 ], [ 106.9035, -6.3882 ], [ 106.904075794621022, -6.392038630806842 ], [ 106.9044, -6.3916 ], [ 106.904178278278266, -6.386589089089098 ] ], [ [ 106.902006306306305, -6.393994594594594 ], [ 106.9027, -6.3939 ], [ 106.903708474576263, -6.39253559322035 ], [ 106.902006306306305, -6.393994594594594 ] ], [ [ 106.8984, -6.3944 ], [ 106.898368257756559, -6.394490692124107 ], [ 106.898820610687025, -6.394429007633589 ], [ 106.8984, -6.3944 ] ], [ [ 106.8977, -6.3964 ], [ 106.89784984423676, -6.396480685358257 ], [ 106.898179629629652, -6.395029629629559 ], [ 106.8977, -6.3964 ] ], [ [ 106.854159496567519, -6.206326086956511 ], [ 106.8557, -6.2047 ], [ 106.855274193548382, -6.203067741935498 ], [ 106.854159496567519, -6.206326086956511 ] ], [ [ 106.855162790697662, -6.202640697674417 ], [ 106.8551, -6.2024 ], [ 106.851, -6.2016 ], [ 106.855162790697662, -6.202640697674417 ] ], [ [ 106.86115, -6.194611475409826 ], [ 106.8583, -6.1962 ], [ 106.851, -6.2016 ], [ 106.86115, -6.194611475409826 ] ], [ [ 106.863758821830785, -6.193157377995957 ], [ 106.875, -6.1923 ], [ 106.8644, -6.1928 ], [ 106.863758821830785, -6.193157377995957 ] ], [ [ 106.8761, -6.1759 ], [ 106.8788, -6.1665 ], [ 106.87975384615379, -6.16702307692305 ], [ 106.8787, -6.1664 ], [ 106.8761, -6.1757 ], [ 106.875, -6.1923 ], [ 106.8761, -6.1759 ] ], [ [ 106.9597, -6.1556 ], [ 106.971667359889423, -6.154619068861524 ], [ 106.971667359889423, -6.154619068861523 ], [ 106.9597, -6.1556 ] ], [ [ 106.9707, -6.1399 ], [ 106.9704, -6.1046 ], [ 106.969190106951871, -6.096201918842366 ], [ 106.9707, -6.1399 ] ], [ [ 106.8602, -6.1538 ], [ 106.861, -6.1523 ], [ 106.8612, -6.1509 ], [ 106.8602, -6.1538 ] ] ] ] } }
]
}
